SOYUZ-MS 28             
1 66664U 25275A   25354.60225114  .00006881  00000+0  12984-3 0  9998
2 66664  51.6321 103.5427 0003193 277.2005  82.8620 15.49685042  1280
1998-067XS              
1 66906U 98067XS  25354.46222212  .00021596  00000+0  37246-3 0  9994
2 66906  51.6311 104.1082 0003002 237.5000 122.5699 15.50962254  2818
1998-067XT              
1 66907U 98067XT  25353.48808759  .00047666  00000+0  77339-3 0  9995
2 66907  51.6306 108.8528 0003998 265.7173  94.3360 15.52255247  2660
1998-067XU              
1 66908U 98067XU  25354.58170097  .00045874  00000+0  73918-3 0  9993
2 66908  51.6312 103.4063 0003922 272.2862  87.7679 15.52465703  2836
SILVERSAT               
1 66909U 98067XV  25353.55080352  .00049748  00000+0  79912-3 0  9998
2 66909  51.6306 108.5226 0003839 268.6960  91.3590 15.52516520  2671
1998-067XW              
1 66910U 98067XW  25354.57888136  .00044854  00000+0  71891-3 0  9990
2 66910  51.6309 103.3870 0004274 249.6033 110.4498 15.52622364  2830
1998-067XX              
1 66911U 98067XX  25354.51206075  .00048031  00000+0  75762-3 0  9993
2 66911  51.6310 103.6915 0003855 259.4504 100.6051 15.53037566  2811
1998-067XY              
1 66912U 98067XY  25353.61960698  .00038197  00000+0  63264-3 0  9998
2 66912  51.6307 108.2310 0004012 260.8810  99.1725 15.51780846  2678
