CCSDS_OMM_VERS = 2.0
CREATION_DATE  = 
ORIGINATOR     = 

OBJECT_NAME    = SOYUZ-MS 28
OBJECT_ID      = 2025-275A
CENTER_NAME    = EARTH
REF_FRAME      = TEME
TIME_SYSTEM    = UTC
MEAN_ELEMENT_THEORY = SGP/SGP4

EPOCH          = 2025-12-20T14:27:14.498496
MEAN_MOTION    = 15.49685042
ECCENTRICITY   = .00031934
INCLINATION    = 51.6321
RA_OF_ASC_NODE = 103.5427
ARG_OF_PERICENTER = 277.2005
MEAN_ANOMALY   = 82.8620

EPHEMERIS_TYPE = 0
CLASSIFICATION_TYPE = U
NORAD_CAT_ID   = 66664
ELEMENT_SET_NO = 999
REV_AT_EPOCH   = 128
BSTAR          = .12983891E-3
MEAN_MOTION_DOT = .6881E-4
MEAN_MOTION_DDOT = 0

CCSDS_OMM_VERS = 2.0
CREATION_DATE  = 
ORIGINATOR     = 

OBJECT_NAME    = 1998-067XS
OBJECT_ID      = 1998-067XS
CENTER_NAME    = EARTH
REF_FRAME      = TEME
TIME_SYSTEM    = UTC
MEAN_ELEMENT_THEORY = SGP/SGP4

EPOCH          = 2025-12-20T11:05:35.991168
MEAN_MOTION    = 15.50962254
ECCENTRICITY   = .00030029
INCLINATION    = 51.6311
RA_OF_ASC_NODE = 104.1082
ARG_OF_PERICENTER = 237.5000
MEAN_ANOMALY   = 122.5699

EPHEMERIS_TYPE = 0
CLASSIFICATION_TYPE = U
NORAD_CAT_ID   = 66906
ELEMENT_SET_NO = 999
REV_AT_EPOCH   = 281
BSTAR          = .37246497E-3
MEAN_MOTION_DOT = .21596E-3
MEAN_MOTION_DDOT = 0

CCSDS_OMM_VERS = 2.0
CREATION_DATE  = 
ORIGINATOR     = 

OBJECT_NAME    = 1998-067XT
OBJECT_ID      = 1998-067XT
CENTER_NAME    = EARTH
REF_FRAME      = TEME
TIME_SYSTEM    = UTC
MEAN_ELEMENT_THEORY = SGP/SGP4

EPOCH          = 2025-12-19T11:42:50.767776
MEAN_MOTION    = 15.52255247
ECCENTRICITY   = .0003998
INCLINATION    = 51.6306
RA_OF_ASC_NODE = 108.8528
ARG_OF_PERICENTER = 265.7173
MEAN_ANOMALY   = 94.3360

EPHEMERIS_TYPE = 0
CLASSIFICATION_TYPE = U
NORAD_CAT_ID   = 66907
ELEMENT_SET_NO = 999
REV_AT_EPOCH   = 266
BSTAR          = .77339E-3
MEAN_MOTION_DOT = .47666E-3
MEAN_MOTION_DDOT = 0

CCSDS_OMM_VERS = 2.0
CREATION_DATE  = 
ORIGINATOR     = 

OBJECT_NAME    = 1998-067XU
OBJECT_ID      = 1998-067XU
CENTER_NAME    = EARTH
REF_FRAME      = TEME
TIME_SYSTEM    = UTC
MEAN_ELEMENT_THEORY = SGP/SGP4

EPOCH          = 2025-12-20T13:57:38.963808
MEAN_MOTION    = 15.52465703
ECCENTRICITY   = .00039229
INCLINATION    = 51.6312
RA_OF_ASC_NODE = 103.4063
ARG_OF_PERICENTER = 272.2862
MEAN_ANOMALY   = 87.7679

EPHEMERIS_TYPE = 0
CLASSIFICATION_TYPE = U
NORAD_CAT_ID   = 66908
ELEMENT_SET_NO = 999
REV_AT_EPOCH   = 283
BSTAR          = .73917994E-3
MEAN_MOTION_DOT = .45874E-3
MEAN_MOTION_DDOT = 0

CCSDS_OMM_VERS = 2.0
CREATION_DATE  = 
ORIGINATOR     = 

OBJECT_NAME    = SILVERSAT
OBJECT_ID      = 1998-067XV
CENTER_NAME    = EARTH
REF_FRAME      = TEME
TIME_SYSTEM    = UTC
MEAN_ELEMENT_THEORY = SGP/SGP4

EPOCH          = 2025-12-19T13:13:09.424128
MEAN_MOTION    = 15.52516520
ECCENTRICITY   = .0003839
INCLINATION    = 51.6306
RA_OF_ASC_NODE = 108.5226
ARG_OF_PERICENTER = 268.6960
MEAN_ANOMALY   = 91.3590

EPHEMERIS_TYPE = 0
CLASSIFICATION_TYPE = U
NORAD_CAT_ID   = 66909
ELEMENT_SET_NO = 999
REV_AT_EPOCH   = 267
BSTAR          = .79912E-3
MEAN_MOTION_DOT = .49748E-3
MEAN_MOTION_DDOT = 0

CCSDS_OMM_VERS = 2.0
CREATION_DATE  = 
ORIGINATOR     = 

OBJECT_NAME    = 1998-067XW
OBJECT_ID      = 1998-067XW
CENTER_NAME    = EARTH
REF_FRAME      = TEME
TIME_SYSTEM    = UTC
MEAN_ELEMENT_THEORY = SGP/SGP4

EPOCH          = 2025-12-20T13:53:35.349504
MEAN_MOTION    = 15.52622364
ECCENTRICITY   = .00042741
INCLINATION    = 51.6309
RA_OF_ASC_NODE = 103.3870
ARG_OF_PERICENTER = 249.6033
MEAN_ANOMALY   = 110.4498

EPHEMERIS_TYPE = 0
CLASSIFICATION_TYPE = U
NORAD_CAT_ID   = 66910
ELEMENT_SET_NO = 999
REV_AT_EPOCH   = 283
BSTAR          = .71890575E-3
MEAN_MOTION_DOT = .44854E-3
MEAN_MOTION_DDOT = 0

CCSDS_OMM_VERS = 2.0
CREATION_DATE  = 
ORIGINATOR     = 

OBJECT_NAME    = 1998-067XX
OBJECT_ID      = 1998-067XX
CENTER_NAME    = EARTH
REF_FRAME      = TEME
TIME_SYSTEM    = UTC
MEAN_ELEMENT_THEORY = SGP/SGP4

EPOCH          = 2025-12-20T12:17:22.048800
MEAN_MOTION    = 15.53037566
ECCENTRICITY   = .00038557
INCLINATION    = 51.6310
RA_OF_ASC_NODE = 103.6915
ARG_OF_PERICENTER = 259.4504
MEAN_ANOMALY   = 100.6051

EPHEMERIS_TYPE = 0
CLASSIFICATION_TYPE = U
NORAD_CAT_ID   = 66911
ELEMENT_SET_NO = 999
REV_AT_EPOCH   = 281
BSTAR          = .75761816E-3
MEAN_MOTION_DOT = .48031E-3
MEAN_MOTION_DDOT = 0

CCSDS_OMM_VERS = 2.0
CREATION_DATE  = 
ORIGINATOR     = 

OBJECT_NAME    = 1998-067XY
OBJECT_ID      = 1998-067XY
CENTER_NAME    = EARTH
REF_FRAME      = TEME
TIME_SYSTEM    = UTC
MEAN_ELEMENT_THEORY = SGP/SGP4

EPOCH          = 2025-12-19T14:52:14.043072
MEAN_MOTION    = 15.51780846
ECCENTRICITY   = .0004012
INCLINATION    = 51.6307
RA_OF_ASC_NODE = 108.2310
ARG_OF_PERICENTER = 260.8810
MEAN_ANOMALY   = 99.1725

EPHEMERIS_TYPE = 0
CLASSIFICATION_TYPE = U
NORAD_CAT_ID   = 66912
ELEMENT_SET_NO = 999
REV_AT_EPOCH   = 267
BSTAR          = .63264E-3
MEAN_MOTION_DOT = .38197E-3
MEAN_MOTION_DDOT = 0

